GSAT0101 (PRN E11)      
1 37846U 11060A   23301.26256572 -.00000100  00000+0  00000+0 0  9990
2 37846  57.1143   7.8397 0000637 323.5222  36.5269  1.70475790 74709
GSAT0102 (PRN E12)      
1 37847U 11060B   23302.35580542 -.00000102  00000+0  00000+0 0  9991
2 37847  57.1149   7.8101 0002726 298.8613  58.2883  1.70475169 74723
GSAT0103 (PRN E19)      
1 38857U 12055A   23301.88827843  .00000059  00000+0  00000+0 0  9993
2 38857  55.3055 127.9922 0002086 239.8801 120.1552  1.70473610 68600
GSAT0104 (PRN E20)      
1 38858U 12055B   23300.09792386  .00000073  00000+0  00000+0 0  9995
2 38858  55.3064 128.0429 0001356 144.1602 215.9177  1.70473820 68576
GSAT0201 (PRN E18)      
1 40128U 14050A   23302.32039641 -.00000084  00000+0  00000+0 0  9994
2 40128  49.8863 312.3659 1607035 142.4562 229.9429  1.85519383 60477
GSAT0202 (PRN E14)      
1 40129U 14050B   23303.11857500 -.00000084  00000+0  00000+0 0  9995
2 40129  49.9042 311.4066 1605052 143.2965 228.8636  1.85520078 62623
GSAT0203 (PRN E26)      
1 40544U 15017A   23299.28213247 -.00000096  00000+0  00000+0 0  9999
2 40544  56.9092   7.8594 0004637 244.0445 115.9574  1.70476067 52755
GSAT0204 (PRN E22)      
1 40545U 15017B   23301.88227431 -.00000102  00000+0  00000+0 0  9998
2 40545  56.9158   7.8029 0004824 232.8161 127.1940  1.70475558 15845
GSAT0205 (PRN E24)      
1 40889U 15045A   23302.23690646 -.00000023  00000+0  00000+0 0  9994
2 40889  55.3350 248.1806 0004579  11.7518 348.2265  1.70472907 50618
GSAT0206 (PRN E30)      
1 40890U 15045B   23302.45757858 -.00000023  00000+0  00000+0 0  9999
2 40890  55.3338 248.1700 0002973 353.9614   6.0039  1.70472950 50642
GSAT0209 (PRN E09)      
1 41174U 15079A   23302.04240630  .00000058  00000+0  00000+0 0  9999
2 41174  55.3233 127.6953 0001897 346.4652  13.5838  1.70474238 48374
GSAT0208 (PRN E08)      
1 41175U 15079B   23302.84862159  .00000051  00000+0  00000+0 0  9997
2 41175  55.3223 127.6712 0001423   2.4953 357.5530  1.70474144 48966
GSAT0211 (PRN E02)      
1 41549U 16030A   23302.38327105 -.00000023  00000+0  00000+0 0  9996
2 41549  55.4811 248.1583 0004011 329.8413  30.1040  1.70472976 46276
GSAT0210 (PRN E01)      
1 41550U 16030B   23302.08812706 -.00000024  00000+0  00000+0 0  9992
2 41550  55.4810 248.1675 0003433 294.0565  65.8745  1.70473273 46264
GSAT0207 (PRN E07)      
1 41859U 16069A   23302.92278288  .00000050  00000+0  00000+0 0  9998
2 41859  54.9872 127.7293 0001623 310.1507  49.8823  1.70474234 43232
GSAT0212 (PRN E03)      
1 41860U 16069B   23301.60422882  .00000060  00000+0  00000+0 0  9996
2 41860  54.9844 127.7627 0001746  32.1147 327.9539  1.70474422 43245
GSAT0213 (PRN E04)      
1 41861U 16069C   23302.55729269  .00000053  00000+0  00000+0 0  9993
2 41861  54.9867 127.7423 0001796 255.6039 104.4263  1.70473056 43257
GSAT0214 (PRN E05)      
1 41862U 16069D   23301.53141611  .00000061  00000+0  00000+0 0  9999
2 41862  54.9845 127.7648 0000849 246.6077 113.4419  1.70472928 43231
GSAT0215 (PRN E21)      
1 43055U 17079A   23301.43323843 -.00000026  00000+0  00000+0 0  9997
2 43055  55.4582 248.0096 0002885 288.7461  71.1870  1.70473678 36574
GSAT0216 (PRN E25)      
1 43056U 17079B   23301.13852879 -.00000027  00000+0  00000+0 0  9992
2 43056  55.4591 248.0175 0004486 288.7289  71.1858  1.70473791 36583
GSAT0217 (PRN E27)      
1 43057U 17079C   23303.11867835 -.00000020  00000+0  00000+0 0  9994
2 43057  55.4558 247.9621 0004089 303.8183  56.1159  1.70473763 36601
GSAT0218 (PRN E31)      
1 43058U 17079D   23301.57895532 -.00000025  00000+0  00000+0 0  9993
2 43058  55.4569 248.0019 0004878 284.1058  75.8049  1.70473753 36600
GSAT0221 (PRN E15)      
1 43564U 18060A   23302.65194205 -.00000103  00000+0  00000+0 0  9992
2 43564  57.2901   7.7097 0004848 262.2102  97.7903  1.70475948 32776
GSAT0222 (PRN E33)      
1 43565U 18060B   23301.69693164 -.00000101  00000+0  00000+0 0  9992
2 43565  57.2935   7.7366 0004493 229.5430 130.4722  1.70475899 32802
GSAT0219 (PRN E36)      
1 43566U 18060C   23301.91918717 -.00000101  00000+0  00000+0 0  9992
2 43566  57.2927   7.7326 0003944 266.2921  93.7176  1.70476021 32782
GSAT0220 (PRN E13)      
1 43567U 18060D   23302.13964694 -.00000102  00000+0  00000+0 0  9994
2 43567  57.2924   7.7265 0004223 262.1659  97.8412  1.70475786 32770
GSAT0223 (PRN E34)      
1 49809U 21116A   23302.64372495 -.00000103  00000+0  00000+0 0  9994
2 49809  57.2839   7.6086 0003687 207.3878 192.3007  1.70476084 11799
GSAT0224 (PRN E10)      
1 49810U 21116B   23302.36543573 -.00000102  00000+0  00000+0 0  9991
2 49810  57.2849   7.6144 0002923 206.9560 134.4252  1.70476028 11801
